CYGNUS NG-23            
1 65616U 25208A   25351.82928960  .00007629  00000+0  14328-3 0  9995
2 65616  51.6309 117.2752 0003168 263.8701  96.1927 15.49640803   228
DRAGONFLY               
1 65729U 98067XH  25351.56750399  .00160588  00000+0  11078-2 0  9995
2 65729  51.6243 111.0116 0007206 308.5140  51.5212 15.73531298 13924
1998-067XK              
1 65731U 98067XK  25351.58338789  .00085225  00000+0  79229-3 0  9992
2 65731  51.6289 112.6400 0004759 277.2608  82.7846 15.66666293 13904
RSP-03                  
1 65732U 98067XL  25351.57888421  .00115432  00000+0  93703-3 0  9992
2 65732  51.6262 111.8477 0005617 283.4279  76.6092 15.69845633 13925
GHS-01                  
1 65733U 98067XM  25351.63632508  .00211757  00000+0  12494-2 0  9997
2 65733  51.6275 109.9788 0007867 312.8661  47.1678 15.76951537 13959
YOTSUBA-KULOVER         
1 65941U 98067XN  25351.70993872  .00059314  00000+0  71726-3 0  9993
2 65941  51.6282 114.9832 0001557 303.5564  56.5280 15.60118660 10633
BOTAN                   
1 65942U 98067XP  25351.70401083  .00095662  00000+0  99084-3 0  9995
2 65942  51.6283 114.1939 0002844 279.5083  80.5590 15.63910316 10646
E-KAGAKU-1              
1 65943U 98067XQ  25351.71003786  .00061026  00000+0  73791-3 0  9999
2 65943  51.6296 114.9884 0001423 240.8217 119.2634 15.60109171 10634
HRC MONOBLOCK CAMERA    
1 66052U 98067XR  25351.85897500  .00030240  00000+0  45614-3 0  9998
2 66052  51.6291 115.9740 0002713 206.7069 153.3783 15.54495982  9635
HTV-X1                  
1 66174U 25241A   25351.82928960  .00007629  00000+0  14328-3 0  9992
2 66174  51.6309 117.2752 0003168 263.8701  96.1927 15.49640803   510
SZ-21 MODULE            
1 66515U 25246C   25351.26873890  .00022864  00000+0  25031-3 0  9996
2 66515  41.4771 348.4140 0005990 284.3104  75.7070 15.62718015  5151
SHENZHOU-22             
1 66645U 25272A   25351.71045444  .00020350  00000+0  25362-3 0  9990
2 66645  41.4683 346.5260 0007703  74.1787 285.9900 15.59389869263571
