CCSDS_OMM_VERS = 2.0
CREATION_DATE  = 
ORIGINATOR     = 

OBJECT_NAME    = CYGNUS NG-23
OBJECT_ID      = 2025-208A
CENTER_NAME    = EARTH
REF_FRAME      = TEME
TIME_SYSTEM    = UTC
MEAN_ELEMENT_THEORY = SGP/SGP4

EPOCH          = 2025-12-17T19:54:10.621440
MEAN_MOTION    = 15.49640803
ECCENTRICITY   = .00031686
INCLINATION    = 51.6309
RA_OF_ASC_NODE = 117.2752
ARG_OF_PERICENTER = 263.8701
MEAN_ANOMALY   = 96.1927

EPHEMERIS_TYPE = 0
CLASSIFICATION_TYPE = U
NORAD_CAT_ID   = 65616
ELEMENT_SET_NO = 999
REV_AT_EPOCH   = 22
BSTAR          = .14328078E-3
MEAN_MOTION_DOT = .7629E-4
MEAN_MOTION_DDOT = 0

CCSDS_OMM_VERS = 2.0
CREATION_DATE  = 
ORIGINATOR     = 

OBJECT_NAME    = DRAGONFLY
OBJECT_ID      = 1998-067XH
CENTER_NAME    = EARTH
REF_FRAME      = TEME
TIME_SYSTEM    = UTC
MEAN_ELEMENT_THEORY = SGP/SGP4

EPOCH          = 2025-12-17T13:37:12.344736
MEAN_MOTION    = 15.73531298
ECCENTRICITY   = .00072061
INCLINATION    = 51.6243
RA_OF_ASC_NODE = 111.0116
ARG_OF_PERICENTER = 308.5140
MEAN_ANOMALY   = 51.5212

EPHEMERIS_TYPE = 0
CLASSIFICATION_TYPE = U
NORAD_CAT_ID   = 65729
ELEMENT_SET_NO = 999
REV_AT_EPOCH   = 1392
BSTAR          = .11077639E-2
MEAN_MOTION_DOT = .160588E-2
MEAN_MOTION_DDOT = 0

CCSDS_OMM_VERS = 2.0
CREATION_DATE  = 
ORIGINATOR     = 

OBJECT_NAME    = 1998-067XK
OBJECT_ID      = 1998-067XK
CENTER_NAME    = EARTH
REF_FRAME      = TEME
TIME_SYSTEM    = UTC
MEAN_ELEMENT_THEORY = SGP/SGP4

EPOCH          = 2025-12-17T14:00:04.713696
MEAN_MOTION    = 15.66666293
ECCENTRICITY   = .00047593
INCLINATION    = 51.6289
RA_OF_ASC_NODE = 112.6400
ARG_OF_PERICENTER = 277.2608
MEAN_ANOMALY   = 82.7846

EPHEMERIS_TYPE = 0
CLASSIFICATION_TYPE = U
NORAD_CAT_ID   = 65731
ELEMENT_SET_NO = 999
REV_AT_EPOCH   = 1390
BSTAR          = .79228691E-3
MEAN_MOTION_DOT = .85225E-3
MEAN_MOTION_DDOT = 0

CCSDS_OMM_VERS = 2.0
CREATION_DATE  = 
ORIGINATOR     = 

OBJECT_NAME    = RSP-03
OBJECT_ID      = 1998-067XL
CENTER_NAME    = EARTH
REF_FRAME      = TEME
TIME_SYSTEM    = UTC
MEAN_ELEMENT_THEORY = SGP/SGP4

EPOCH          = 2025-12-17T13:53:35.595744
MEAN_MOTION    = 15.69845633
ECCENTRICITY   = .0005617
INCLINATION    = 51.6262
RA_OF_ASC_NODE = 111.8477
ARG_OF_PERICENTER = 283.4279
MEAN_ANOMALY   = 76.6092

EPHEMERIS_TYPE = 0
CLASSIFICATION_TYPE = U
NORAD_CAT_ID   = 65732
ELEMENT_SET_NO = 999
REV_AT_EPOCH   = 1392
BSTAR          = .93703449E-3
MEAN_MOTION_DOT = .115432E-2
MEAN_MOTION_DDOT = 0

CCSDS_OMM_VERS = 2.0
CREATION_DATE  = 
ORIGINATOR     = 

OBJECT_NAME    = GHS-01
OBJECT_ID      = 1998-067XM
CENTER_NAME    = EARTH
REF_FRAME      = TEME
TIME_SYSTEM    = UTC
MEAN_ELEMENT_THEORY = SGP/SGP4

EPOCH          = 2025-12-17T15:16:18.486912
MEAN_MOTION    = 15.76951537
ECCENTRICITY   = .00078677
INCLINATION    = 51.6275
RA_OF_ASC_NODE = 109.9788
ARG_OF_PERICENTER = 312.8661
MEAN_ANOMALY   = 47.1678

EPHEMERIS_TYPE = 0
CLASSIFICATION_TYPE = U
NORAD_CAT_ID   = 65733
ELEMENT_SET_NO = 999
REV_AT_EPOCH   = 1395
BSTAR          = .1249396E-2
MEAN_MOTION_DOT = .211757E-2
MEAN_MOTION_DDOT = 0

CCSDS_OMM_VERS = 2.0
CREATION_DATE  = 
ORIGINATOR     = 

OBJECT_NAME    = YOTSUBA-KULOVER
OBJECT_ID      = 1998-067XN
CENTER_NAME    = EARTH
REF_FRAME      = TEME
TIME_SYSTEM    = UTC
MEAN_ELEMENT_THEORY = SGP/SGP4

EPOCH          = 2025-12-17T17:02:18.705408
MEAN_MOTION    = 15.60118660
ECCENTRICITY   = .00015575
INCLINATION    = 51.6282
RA_OF_ASC_NODE = 114.9832
ARG_OF_PERICENTER = 303.5564
MEAN_ANOMALY   = 56.5280

EPHEMERIS_TYPE = 0
CLASSIFICATION_TYPE = U
NORAD_CAT_ID   = 65941
ELEMENT_SET_NO = 999
REV_AT_EPOCH   = 1063
BSTAR          = .71726351E-3
MEAN_MOTION_DOT = .59314E-3
MEAN_MOTION_DDOT = 0

CCSDS_OMM_VERS = 2.0
CREATION_DATE  = 
ORIGINATOR     = 

OBJECT_NAME    = BOTAN
OBJECT_ID      = 1998-067XP
CENTER_NAME    = EARTH
REF_FRAME      = TEME
TIME_SYSTEM    = UTC
MEAN_ELEMENT_THEORY = SGP/SGP4

EPOCH          = 2025-12-17T16:53:46.535712
MEAN_MOTION    = 15.63910316
ECCENTRICITY   = .00028443
INCLINATION    = 51.6283
RA_OF_ASC_NODE = 114.1939
ARG_OF_PERICENTER = 279.5083
MEAN_ANOMALY   = 80.5590

EPHEMERIS_TYPE = 0
CLASSIFICATION_TYPE = U
NORAD_CAT_ID   = 65942
ELEMENT_SET_NO = 999
REV_AT_EPOCH   = 1064
BSTAR          = .99083952E-3
MEAN_MOTION_DOT = .95662E-3
MEAN_MOTION_DDOT = 0

CCSDS_OMM_VERS = 2.0
CREATION_DATE  = 
ORIGINATOR     = 

OBJECT_NAME    = E-KAGAKU-1
OBJECT_ID      = 1998-067XQ
CENTER_NAME    = EARTH
REF_FRAME      = TEME
TIME_SYSTEM    = UTC
MEAN_ELEMENT_THEORY = SGP/SGP4

EPOCH          = 2025-12-17T17:02:27.271104
MEAN_MOTION    = 15.60109171
ECCENTRICITY   = .0001423
INCLINATION    = 51.6296
RA_OF_ASC_NODE = 114.9884
ARG_OF_PERICENTER = 240.8217
MEAN_ANOMALY   = 119.2634

EPHEMERIS_TYPE = 0
CLASSIFICATION_TYPE = U
NORAD_CAT_ID   = 65943
ELEMENT_SET_NO = 999
REV_AT_EPOCH   = 1063
BSTAR          = .7379067E-3
MEAN_MOTION_DOT = .61026E-3
MEAN_MOTION_DDOT = 0

CCSDS_OMM_VERS = 2.0
CREATION_DATE  = 
ORIGINATOR     = 

OBJECT_NAME    = HRC MONOBLOCK CAMERA
OBJECT_ID      = 1998-067XR
CENTER_NAME    = EARTH
REF_FRAME      = TEME
TIME_SYSTEM    = UTC
MEAN_ELEMENT_THEORY = SGP/SGP4

EPOCH          = 2025-12-17T20:36:55.440000
MEAN_MOTION    = 15.54495982
ECCENTRICITY   = .00027135
INCLINATION    = 51.6291
RA_OF_ASC_NODE = 115.9740
ARG_OF_PERICENTER = 206.7069
MEAN_ANOMALY   = 153.3783

EPHEMERIS_TYPE = 0
CLASSIFICATION_TYPE = U
NORAD_CAT_ID   = 66052
ELEMENT_SET_NO = 999
REV_AT_EPOCH   = 963
BSTAR          = .45614102E-3
MEAN_MOTION_DOT = .3024E-3
MEAN_MOTION_DDOT = 0

CCSDS_OMM_VERS = 2.0
CREATION_DATE  = 
ORIGINATOR     = 

OBJECT_NAME    = HTV-X1
OBJECT_ID      = 2025-241A
CENTER_NAME    = EARTH
REF_FRAME      = TEME
TIME_SYSTEM    = UTC
MEAN_ELEMENT_THEORY = SGP/SGP4

EPOCH          = 2025-12-17T19:54:10.621440
MEAN_MOTION    = 15.49640803
ECCENTRICITY   = .00031686
INCLINATION    = 51.6309
RA_OF_ASC_NODE = 117.2752
ARG_OF_PERICENTER = 263.8701
MEAN_ANOMALY   = 96.1927

EPHEMERIS_TYPE = 0
CLASSIFICATION_TYPE = U
NORAD_CAT_ID   = 66174
ELEMENT_SET_NO = 999
REV_AT_EPOCH   = 51
BSTAR          = .14328078E-3
MEAN_MOTION_DOT = .7629E-4
MEAN_MOTION_DDOT = 0

CCSDS_OMM_VERS = 2.0
CREATION_DATE  = 
ORIGINATOR     = 

OBJECT_NAME    = SZ-21 MODULE
OBJECT_ID      = 2025-246C
CENTER_NAME    = EARTH
REF_FRAME      = TEME
TIME_SYSTEM    = UTC
MEAN_ELEMENT_THEORY = SGP/SGP4

EPOCH          = 2025-12-17T06:26:59.040960
MEAN_MOTION    = 15.62718015
ECCENTRICITY   = .00059901
INCLINATION    = 41.4771
RA_OF_ASC_NODE = 348.4140
ARG_OF_PERICENTER = 284.3104
MEAN_ANOMALY   = 75.7070

EPHEMERIS_TYPE = 0
CLASSIFICATION_TYPE = U
NORAD_CAT_ID   = 66515
ELEMENT_SET_NO = 999
REV_AT_EPOCH   = 515
BSTAR          = .25031156E-3
MEAN_MOTION_DOT = .22864E-3
MEAN_MOTION_DDOT = 0

CCSDS_OMM_VERS = 2.0
CREATION_DATE  = 
ORIGINATOR     = 

OBJECT_NAME    = SHENZHOU-22
OBJECT_ID      = 2025-272A
CENTER_NAME    = EARTH
REF_FRAME      = TEME
TIME_SYSTEM    = UTC
MEAN_ELEMENT_THEORY = SGP/SGP4

EPOCH          = 2025-12-17T17:03:03.263616
MEAN_MOTION    = 15.59389869
ECCENTRICITY   = .00077031
INCLINATION    = 41.4683
RA_OF_ASC_NODE = 346.5260
ARG_OF_PERICENTER = 74.1787
MEAN_ANOMALY   = 285.9900

EPHEMERIS_TYPE = 0
CLASSIFICATION_TYPE = U
NORAD_CAT_ID   = 66645
ELEMENT_SET_NO = 999
REV_AT_EPOCH   = 26357
BSTAR          = .25361987E-3
MEAN_MOTION_DOT = .2035E-3
MEAN_MOTION_DDOT = 0

